CCSDS_OEM_VERS = 2.0  
CREATION_DATE  = 2026-05-08T15:37:25
ORIGINATOR     = ESOC/OPS-GFA                            
 
 



META_START
OBJECT_NAME          = LISA                                    
OBJECT_ID            = -1000                                   
CENTER_NAME          = SUN                     
REF_FRAME            = EME2000 
TIME_SYSTEM          = TCB
START_TIME           = 2036-12-23T00:00:30.346418            
STOP_TIME            = 2047-09-05T22:11:40.834175            
INTERPOLATION        = HERMITE                                 
INTERPOLATION_DEGREE = 7                                       
META_STOP

2041-11-25T13:56:31.473304     1.08451082729100823e+08    9.46014591236818731e+07    4.07611514906388819e+07   -2.06232891590681682e+01    1.98339438880712180e+01    8.33230976661948475e+00   -4.30110669639892873e-06   -3.75165003477444246e-06   -1.61648387047928093e-06
2041-11-26T10:07:17.529332     1.06941584348121390e+08    9.60323664784040004e+07    4.13621740991867185e+07   -2.09336097094781834e+01    1.95593075159802154e+01    8.21399878963336683e+00   -4.24209573309739872e-06   -3.80916539585557425e-06   -1.64065007128802578e-06
2041-11-27T06:18:03.585362     1.05409698927500188e+08    9.74431715075734258e+07    4.19545384117130414e+07   -2.12396100431789172e+01    1.92805210290404183e+01    8.09394436729155942e+00   -4.18216986124477749e-06   -3.86590365256451424e-06   -1.66448132138079299e-06
2041-11-28T02:33:54.925731     1.03849166364550799e+08    9.88393743211556226e+07    4.25405523790113628e+07   -2.15424822786348464e+01    1.89964440181309193e+01    7.97165569642324900e+00   -4.12108380056184365e-06   -3.92208581420155795e-06   -1.68807039085356456e-06
2041-11-28T22:49:46.266099     1.02266702221943274e+08    1.00214704566095889e+08    4.31175827680695727e+07   -2.18408653669314106e+01    1.87082978758981895e+01    7.84765884857079321e+00   -4.05909957242678132e-06   -3.97745898649363441e-06   -1.71131103379585175e-06
2041-11-29T19:05:37.606468     1.00662636373401701e+08    1.01568867588688314e+08    4.36855059101488814e+07   -2.21346942434002543e+01    1.84161420728720095e+01    7.72197943257406205e+00   -3.99622975790961959e-06   -4.03201074957538570e-06   -1.73419803094954183e-06
2041-11-30T15:21:28.946837     9.90373033877935708e+07    1.02901573047123045e+08    4.42441999931631014e+07   -2.24239047676681658e+01    1.81200369814424569e+01    7.59464343621294002e+00   -3.93248711812933696e-06   -4.08572880197472431e-06   -1.75672621429008323e-06
2041-12-01T11:37:20.287205     9.73910424776116014e+07    1.04212535028145924e+08    4.47935451110313013e+07   -2.27084337372124594e+01    1.78200438664771568e+01    7.46567722215056673e+00   -3.86788460524939256e-06   -4.13860098044566662e-06   -1.77889047551390557e-06
2041-12-02T07:53:11.627575     9.57241974385345131e+07    1.05501472138588443e+08    4.53334233023007885e+07   -2.29882189016171665e+01    1.75162248746141351e+01    7.33510752330996851e+00   -3.80243537078089110e-06   -4.19061527650988005e-06   -1.80068577311311821e-06
2041-12-03T04:09:02.967944     9.40371165817712545e+07    1.06768107577090055e+08    4.58637185803118646e+07   -2.32631989773368559e+01    1.72086430224677933e+01    7.20296143778603959e+00   -3.73615277119794249e-06   -4.24175984971322136e-06   -1.82210713804014316e-06
2041-12-04T00:24:54.308313     9.23301526609064639e+07    1.08012169191320449e+08    4.63843169571697265e+07   -2.35333136627718176e+01    1.68973621839879300e+01    7.06926642339581512e+00   -3.66905037085625450e-06   -4.29202303758822476e-06   -1.84314967795849621e-06
2041-12-04T20:40:45.648681     9.06036627949648798e+07    1.09233389526009142e+08    4.68951064637888446e+07   -2.37985036534582655e+01    1.65824470772116044e+01    6.93405029197001976e+00   -3.60114194223032014e-06   -4.34139336233832096e-06   -1.86380858008636310e-06
2041-12-05T16:56:36.989050     8.88580083894121796e+07    1.10431505867090076e+08    4.73959771682750955e+07   -2.40587106571772615e+01    1.62639632506477803e+01    6.79734120348882787e+00   -3.53244146344449071e-06   -4.38985953421823132e-06   -1.88407911262209671e-06
2041-12-06T13:12:28.329419     8.70935550568101406e+07    1.11606260287268803e+08    4.78868211949111298e+07   -2.43138774087860341e+01    1.59419770695345786e+01    6.65916766016482420e+00   -3.46296311313172257e-06   -4.43741045164667151e-06   -1.90395662476712565e-06
2041-12-07T09:28:19.669788     8.53106725388436168e+07    1.12757399698319510e+08    4.83675327460101321e+07   -2.45639476845754139e+01    1.56165557022090429e+01    6.51955850057609432e+00   -3.39272126259366759e-06   -4.48403519802001598e-06   -1.92343654533273782e-06
2041-12-08T05:44:11.010156     8.35097346314371228e+07    1.13884675915419608e+08    4.88380081289034933e+07   -2.48088663159570153e+01    1.52877671068292571e+01    6.37854289395245200e+00   -3.32173046524460805e-06   -4.52972303521630578e-06   -1.94251437992641963e-06
2041-12-09T02:00:02.350526     8.16911191146785319e+07    1.14987845738829523e+08    4.92981457903275564e+07   -2.50485792022839178e+01    1.49556800186887546e+01    6.23615033471768143e+00   -3.25000544342537715e-06   -4.57446339386986522e-06   -1.96118570675178239e-06
2041-12-09T22:15:53.690895     7.98552076892679632e+07    1.16066671058224797e+08    4.97478463604749665e+07   -2.52830333226084818e+01    1.46203639383629529e+01    6.09241063739090016e+00   -3.17756107247106817e-06   -4.61824586030281345e-06   -1.97944617097373514e-06
2041-12-10T18:31:45.031264     7.80023859212089032e+07    1.17120918984988704e+08    5.01870127089757621e+07   -2.55121767461810478e+01    1.42818891209276995e+01    5.94735393194981476e+00   -3.10441236206473410e-06   -4.66106016014777638e-06   -1.99729147766332656e-06
2041-12-11T14:49:03.404191     7.61308032437116504e+07    1.18151574963000089e+08    5.06160547566268221e+07   -2.57362224086311606e+01    1.39399172440190533e+01    5.80083530631483413e+00   -3.03048632919435287e-06   -4.70294593153988712e-06   -2.01473812241190700e-06
2041-12-12T11:06:21.777119     7.42430544284617901e+07    1.19157143042977005e+08    5.10343491697054356e+07   -2.59548438840633509e+01    1.35949222017820528e+01    5.65305788003321830e+00   -2.95588517980752274e-06   -4.74384149559843182e-06   -2.03176038142992463e-06
2041-12-13T07:23:40.150047     7.23395374335967600e+07    1.20137405099959671e+08    5.14418051567510962e+07   -2.61679924362282392e+01    1.32469766657270789e+01    5.50405279486066856e+00   -2.88062463278019103e-06   -4.78373733729909057e-06   -2.04835428620906142e-06
2041-12-14T03:40:58.522975     7.04206537323984206e+07    1.21092148278594702e+08    5.18383341843825951e+07   -2.63756204823245817e+01    1.28961539966126164e+01    5.35385147994995947e+00   -2.80472055508142034e-06   -4.82262410227650520e-06   -2.06451593729365446e-06
2041-12-14T23:58:16.895902     6.84868082318207026e+07    1.22021165097848162e+08    5.22238500214227214e+07   -2.65776816040286974e+01    1.25425282318543250e+01    5.20248564644199085e+00   -2.72818896723581385e-06   -4.86049261953643857e-06   -2.08024151396918117e-06
2041-12-15T20:15:35.268831     6.65384091885960102e+07    1.22924253528600320e+08    5.25982687714796364e+07   -2.67741305588543774e+01    1.21861740714236753e+01    5.04998728141265296e+00   -2.65104604697868396e-06   -4.89733392018648861e-06   -2.09552728224866871e-06
2041-12-16T16:32:53.641758     6.45758681232518256e+07    1.23801217049819872e+08    5.29615088964093626e+07   -2.69649232917138804e+01    1.18271668625236472e+01    4.89638864129841789e+00   -2.57330813110648554e-06   -4.93313925219306159e-06   -2.11036960116037330e-06
2041-12-17T12:50:12.014686     6.25995997323856726e+07    1.24651864689004153e+08    5.33134912330790609e+07   -2.71500169465480532e+01    1.14655825833319156e+01    4.74172224492482375e+00   -2.49499171551930907e-06   -4.96790009115813165e-06   -2.12476492733388970e-06
2041-12-18T09:07:30.387614     6.06100217995464355e+07    1.25476011052571565e+08    5.36541390058509111e+07   -2.73293698778936616e+01    1.11014978261020616e+01    4.58602086626202343e+00   -2.41611345346023623e-06   -5.00160814712539106e-06   -2.13870981788886059e-06
2041-12-19T05:24:48.760542     5.86075551050698683e+07    1.26273476351892740e+08    5.39833778372060508e+07   -2.75029416622559602e+01    1.07349897799131853e+01    4.42931752703157322e+00   -2.33669015194032723e-06   -5.03425536739494923e-06   -2.15220093161733752e-06
2041-12-20T01:42:07.133469     5.65926233352164999e+07    1.27044086430646896e+08    5.43011357589285225e+07   -2.76706931091546124e+01    1.03661362133584500e+01    4.27164548928863397e+00   -2.25673876636904902e-06   -5.06583393538368286e-06   -2.16523502847562556e-06
2041-12-20T21:59:25.506397     5.45656529909597784e+07    1.27787672799189597e+08    5.46073432262687460e+07   -2.78325862717109942e+01    9.99501545746301368e+00    4.11303824810375573e+00   -2.17627639337081583e-06   -5.09633626549099828e-06   -2.17780896736854081e-06
2041-12-21T18:16:43.879325     5.25270732967725694e+07    1.28504072681618422e+08    5.49019331375062168e+07   -2.79885844566449506e+01    9.62170638912177978e+00    3.95352952446843631e+00   -2.09532026179535059e-06   -5.12575499399332720e-06   -2.18991970223589284e-06
2041-12-22T14:34:02.252252     5.04773161097598672e+07    1.29193129081223190e+08    5.51848408613312542e+07   -2.81386522335490987e+01    9.24628841534748958e+00    3.79315325854858010e+00   -2.01388772191725847e-06   -5.15408296595304024e-06   -2.20156427643512191e-06
2041-12-23T10:51:20.625180     4.84168158294857070e+07    1.29854690870006472e+08    5.54560042744652778e+07   -2.82827554433086910e+01    8.86884145861955808e+00    3.63194360341010869e+00   -1.93199623285513416e-06   -5.18131321818972028e-06   -2.21273981544072704e-06
